ACS3                    
1 59588U 24077B   24198.14421354  .00000039  00000+0  80399-4 0  9997
2 59588  97.4048 259.5975 0020474  19.4465 340.7463 13.67691515 11369
